GLOBALSTAR M024         
1 25883U 99043A   25214.49579049 -.00000107  00000+0 -15039-2 0  9991
2 25883  52.0005 276.1384 0001710 176.1381 321.4262 11.10164317120005
GLOBALSTAR M027         
1 25884U 99043B   25214.56692816 -.00000056  00000+0  29375-3 0  9999
2 25884  52.0242 355.2703 0021974  67.5499 292.7619 11.04371667146364
GLOBALSTAR M053         
1 25886U 99043D   25214.60224517 -.00000065  00000+0  94589-4 0  9995
2 25886  51.9989  64.3710 0003314 145.7309 245.9386 11.27666156124682
GLOBALSTAR M058         
1 25907U 99049A   25214.80150835 -.00000093  00000+0 -11017-3 0  9994
2 25907  51.9971 344.7036 0002048  17.3138 342.7767 11.93200938158311
GLOBALSTAR M050         
1 25908U 99049B   25214.58374897 -.00000134  00000+0 -51385-3 0  9994
2 25908  52.0018 349.4935 0009894 122.8936 350.5233 12.07455449153797
GLOBALSTAR M033         
1 25909U 99049C   25214.38311911 -.00000038  00000+0  51884-3 0  9997
2 25909  51.9880 218.6852 0013662 357.3988   2.6787 12.20295240541389
GLOBALSTAR M055         
1 25910U 99049D   25214.51677674 -.00000069  00000+0  21957-3 0  9997
2 25910  51.9989 226.8020 0007090 228.2201 131.8046 12.29430635173989
